start=new Date('2021-12-11T00:00:00.000Z').valueOf();
sats=[{"COUNTRY_CODE":"US","CENTER_NAME":"EARTH","OBJECT_ID":"2021-044BM","REF_FRAME":"TEME","PERIOD":"95.593","GP_ID":"191461039","INCLINATION":"53.0554","DECAY_DATE":null,"TLE_LINE1":"1 48697U 21044BM  21344.74396810  .00000290  00000-0  38409-4 0  9996","MEAN_ELEMENT_THEORY":"SGP4","MEAN_MOTION_DOT":"0.00000290","BSTAR":"0.00003840900000","TIME_SYSTEM":"UTC","REV_AT_EPOCH":"3051","MEAN_ANOMALY":"283.5301","PERIAPSIS":"545.747","ECCENTRICITY":"0.00021650","NORAD_CAT_ID":"48697","ARG_OF_PERICENTER":"76.5930","EPOCH":"2021-12-10T17:51:18.843840","FILE":"3237005","TLE_LINE2":"2 48697  53.0554 209.5927 0002165  76.5930 283.5301 15.06389322 30516","OBJECT_TYPE":"PAYLOAD","LAUNCH_DATE":"2021-05-26","RA_OF_ASC_NODE":"209.5927","SEMIMAJOR_AXIS":"6925.381","ELEMENT_SET_NO":"999","SITE":"AFETR","EPHEMERIS_TYPE":"0","CLASSIFICATION_TYPE":"U","OBJECT_NAME":"STARLINK-2715","MEAN_MOTION":"15.06389322","APOAPSIS":"548.746","MEAN_MOTION_DDOT":"0.0000000000000","RCS_SIZE":"LARGE"},{"SITE":"AFETR","EPHEMERIS_TYPE":"0","CLASSIFICATION_TYPE":"U","APOAPSIS":"522.971","RCS_SIZE":"LARGE","MEAN_MOTION_DDOT":"0.0000000000000","OBJECT_NAME":"STARLINK-3003","MEAN_MOTION":"15.15993862","ARG_OF_PERICENTER":"108.5585","FILE":"3237005","EPOCH":"2021-12-10T22:00:00.999936","NORAD_CAT_ID":"48879","ECCENTRICITY":"0.00072600","SEMIMAJOR_AXIS":"6896.100","ELEMENT_SET_NO":"999","RA_OF_ASC_NODE":"112.1495","TLE_LINE2":"2 48879  97.5263 112.1495 0007260 108.5585  22.7959 15.15993862  3590","OBJECT_TYPE":"PAYLOAD","LAUNCH_DATE":"2021-06-30","MEAN_ANOMALY":"22.7959","BSTAR":"-0.00173740000000","REV_AT_EPOCH":"359","TIME_SYSTEM":"UTC","PERIAPSIS":"512.958","INCLINATION":"97.5263","GP_ID":"191460135","CENTER_NAME":"EARTH","OBJECT_ID":"2021-059A","COUNTRY_CODE":"US","PERIOD":"94.987","REF_FRAME":"TEME","MEAN_ELEMENT_THEORY":"SGP4","TLE_LINE1":"1 48879U 21059A   21344.91667824 -.00033274  00000-0 -17374-2 0  9995","MEAN_MOTION_DOT":"-0.00033274","DECAY_DATE":null},{"ELEMENT_SET_NO":"999","SEMIMAJOR_AXIS":"6896.067","RA_OF_ASC_NODE":"112.1577","TLE_LINE2":"2 48880  97.5263 112.1577 0004007 164.4910 346.4075 15.16004738  3593","LAUNCH_DATE":"2021-06-30","OBJECT_TYPE":"PAYLOAD","FILE":"3237005","EPOCH":"2021-12-10T22:00:00.999936","ARG_OF_PERICENTER":"164.4910","NORAD_CAT_ID":"48880","ECCENTRICITY":"0.00040070","RCS_SIZE":"LARGE","MEAN_MOTION_DDOT":"0.0000000000000","APOAPSIS":"520.695","MEAN_MOTION":"15.16004738","OBJECT_NAME":"STARLINK-3004","CLASSIFICATION_TYPE":"U","SITE":"AFETR","EPHEMERIS_TYPE":"0","MEAN_MOTION_DOT":"-0.00033528","MEAN_ELEMENT_THEORY":"SGP4","TLE_LINE1":"1 48880U 21059B   21344.91667824 -.00033528  00000-0 -17511-2 0  9992","DECAY_DATE":null,"INCLINATION":"97.5263","GP_ID":"191459951","PERIOD":"94.987","REF_FRAME":"TEME","OBJECT_ID":"2021-059B","CENTER_NAME":"EARTH","COUNTRY_CODE":"US","PERIAPSIS":"515.169","MEAN_ANOMALY":"346.4075","REV_AT_EPOCH":"359","TIME_SYSTEM":"UTC","BSTAR":"-0.00175110000000"},{"NORAD_CAT_ID":"48881","ECCENTRICITY":"0.00044510","FILE":"3237005","EPOCH":"2021-12-10T22:00:00.999936","ARG_OF_PERICENTER":"143.6369","RA_OF_ASC_NODE":"112.1663","TLE_LINE2":"2 48881  97.5268 112.1663 0004451 143.6369 359.3658 15.16003689  3599","LAUNCH_DATE":"2021-06-30","OBJECT_TYPE":"PAYLOAD","ELEMENT_SET_NO":"999","SEMIMAJOR_AXIS":"6896.070","CLASSIFICATION_TYPE":"U","EPHEMERIS_TYPE":"0","SITE":"AFETR","MEAN_MOTION":"15.16003689","OBJECT_NAME":"STARLINK-3005","RCS_SIZE":"LARGE","MEAN_MOTION_DDOT":"0.0000000000000","APOAPSIS":"521.005","PERIOD":"94.987","REF_FRAME":"TEME","CENTER_NAME":"EARTH","OBJECT_ID":"2021-059C","COUNTRY_CODE":"US","INCLINATION":"97.5268","GP_ID":"191460875","DECAY_DATE":null,"MEAN_MOTION_DOT":"-0.00033301","MEAN_ELEMENT_THEORY":"SGP4","TLE_LINE1":"1 48881U 21059C   21344.91667824 -.00033301  00000-0 -17391-2 0  9998","TIME_SYSTEM":"UTC","REV_AT_EPOCH":"359","BSTAR":"-0.00173910000000","MEAN_ANOMALY":"359.3658","PERIAPSIS":"514.866"},{"RA_OF_ASC_NODE":"239.8871","OBJECT_TYPE":"PAYLOAD","TLE_LINE2":"2 49131  69.9975 239.8871 0003048 273.1347  72.2403 15.69752569 13899","LAUNCH_DATE":"2021-09-14","ELEMENT_SET_NO":"999","SEMIMAJOR_AXIS":"6737.742","NORAD_CAT_ID":"49131","ECCENTRICITY":"0.00030480","FILE":"3236993","EPOCH":"2021-12-11T00:00:00.999648","ARG_OF_PERICENTER":"273.1347","MEAN_MOTION":"15.69752569","OBJECT_NAME":"STARLINK-3096","RCS_SIZE":"LARGE","MEAN_MOTION_DDOT":"0.0000000000000","APOAPSIS":"361.661","CLASSIFICATION_TYPE":"U","SITE":"AFWTR","EPHEMERIS_TYPE":"0","DECAY_DATE":null,"MEAN_MOTION_DOT":"0.00004514","MEAN_ELEMENT_THEORY":"SGP4","TLE_LINE1":"1 49131U 21082B   21345.00001157  .00004514  00000-0  39562-4 0  9993","PERIOD":"91.734","REF_FRAME":"TEME","CENTER_NAME":"EARTH","OBJECT_ID":"2021-082B","COUNTRY_CODE":"US","INCLINATION":"69.9975","GP_ID":"191436600","PERIAPSIS":"357.553","REV_AT_EPOCH":"1389","TIME_SYSTEM":"UTC","BSTAR":"0.00003956200000","MEAN_ANOMALY":"72.2403"},{"RA_OF_ASC_NODE":"243.0305","LAUNCH_DATE":"2021-09-14","TLE_LINE2":"2 49132  70.0001 243.0305 0003281 282.0908 321.1949 15.25518614  3649","OBJECT_TYPE":"PAYLOAD","ELEMENT_SET_NO":"999","SEMIMAJOR_AXIS":"6867.366","NORAD_CAT_ID":"49132","ECCENTRICITY":"0.00032810","FILE":"3237005","EPOCH":"2021-12-10T22:00:00.999936","ARG_OF_PERICENTER":"282.0908","MEAN_MOTION":"15.25518614","OBJECT_NAME":"STARLINK-3090","RCS_SIZE":"LARGE","MEAN_MOTION_DDOT":"0.0000000000000","APOAPSIS":"491.484","CLASSIFICATION_TYPE":"U","SITE":"AFWTR","EPHEMERIS_TYPE":"0","DECAY_DATE":null,"MEAN_MOTION_DOT":"-0.00658046","MEAN_ELEMENT_THEORY":"SGP4","TLE_LINE1":"1 49132U 21082C   21344.91667824 -.00658046  00000-0 -27894-1 0  9991","REF_FRAME":"TEME","PERIOD":"94.394","OBJECT_ID":"2021-082C","CENTER_NAME":"EARTH","COUNTRY_CODE":"US","GP_ID":"191460720","INCLINATION":"70.0001","PERIAPSIS":"486.977","TIME_SYSTEM":"UTC","REV_AT_EPOCH":"364","BSTAR":"-0.02789400000000","MEAN_ANOMALY":"321.1949"},{"CLASSIFICATION_TYPE":"U","EPHEMERIS_TYPE":"0","SITE":"AFWTR","RCS_SIZE":"LARGE","MEAN_MOTION_DDOT":"0.0000000000000","APOAPSIS":"491.485","MEAN_MOTION":"15.25534939","OBJECT_NAME":"STARLINK-3077","FILE":"3237005","EPOCH":"2021-12-10T22:00:00.999936","ARG_OF_PERICENTER":"285.2344","NORAD_CAT_ID":"49133","ECCENTRICITY":"0.00033540","ELEMENT_SET_NO":"999","SEMIMAJOR_AXIS":"6867.317","RA_OF_ASC_NODE":"243.0413","TLE_LINE2":"2 49133  70.0001 243.0413 0003354 285.2344 324.1495 15.25534939  3647","LAUNCH_DATE":"2021-09-14","OBJECT_TYPE":"PAYLOAD","MEAN_ANOMALY":"324.1495","REV_AT_EPOCH":"364","TIME_SYSTEM":"UTC","BSTAR":"-0.02787900000000","PERIAPSIS":"486.878","INCLINATION":"70.0001","GP_ID":"191459795","REF_FRAME":"TEME","PERIOD":"94.393","CENTER_NAME":"EARTH","OBJECT_ID":"2021-082D","COUNTRY_CODE":"US","MEAN_MOTION_DOT":"-0.00658028","MEAN_ELEMENT_THEORY":"SGP4","TLE_LINE1":"1 49133U 21082D   21344.91667824 -.00658028  00000-0 -27879-1 0  9995","DECAY_DATE":null},{"GP_ID":"191460349","INCLINATION":"70.0002","REF_FRAME":"TEME","PERIOD":"94.383","COUNTRY_CODE":"US","CENTER_NAME":"EARTH","OBJECT_ID":"2021-082E","MEAN_MOTION_DOT":"-0.00658238","TLE_LINE1":"1 49134U 21082E   21344.91667824 -.00658238  00000-0 -27758-1 0  9995","MEAN_ELEMENT_THEORY":"SGP4","DECAY_DATE":null,"MEAN_ANOMALY":"354.1172","REV_AT_EPOCH":"364","TIME_SYSTEM":"UTC","BSTAR":"-0.02775800000000","PERIAPSIS":"486.436","EPOCH":"2021-12-10T22:00:00.999936","FILE":"3237005","ARG_OF_PERICENTER":"281.3819","ECCENTRICITY":"0.00033180","NORAD_CAT_ID":"49134","ELEMENT_SET_NO":"999","SEMIMAJOR_AXIS":"6866.849","TLE_LINE2":"2 49134  70.0002 243.0297 0003318 281.3819 354.1172 15.25690733  3643","LAUNCH_DATE":"2021-09-14","OBJECT_TYPE":"PAYLOAD","RA_OF_ASC_NODE":"243.0297","CLASSIFICATION_TYPE":"U","SITE":"AFWTR","EPHEMERIS_TYPE":"0","MEAN_MOTION_DDOT":"0.0000000000000","RCS_SIZE":"LARGE","APOAPSIS":"490.992","MEAN_MOTION":"15.25690733","OBJECT_NAME":"STARLINK-3078"},{"ARG_OF_PERICENTER":"274.9402","EPOCH":"2021-12-10T22:00:00.999936","FILE":"3237005","ECCENTRICITY":"0.00032080","NORAD_CAT_ID":"49135","SEMIMAJOR_AXIS":"6737.723","ELEMENT_SET_NO":"999","OBJECT_TYPE":"PAYLOAD","TLE_LINE2":"2 49135  69.9977 240.1117 0003208 274.9402 326.0240 15.69759127  3673","LAUNCH_DATE":"2021-09-14","RA_OF_ASC_NODE":"240.1117","EPHEMERIS_TYPE":"0","SITE":"AFWTR","CLASSIFICATION_TYPE":"U","APOAPSIS":"361.750","MEAN_MOTION_DDOT":"0.0000000000000","RCS_SIZE":"LARGE","OBJECT_NAME":"STARLINK-3073","MEAN_MOTION":"15.69759127","GP_ID":"191460535","INCLINATION":"69.9977","COUNTRY_CODE":"US","CENTER_NAME":"EARTH","OBJECT_ID":"2021-082F","PERIOD":"91.734","REF_FRAME":"TEME","TLE_LINE1":"1 49135U 21082F   21344.91667824 -.00025999  00000-0 -21660-3 0  9996","MEAN_ELEMENT_THEORY":"SGP4","MEAN_MOTION_DOT":"-0.00025999","DECAY_DATE":null,"MEAN_ANOMALY":"326.0240","BSTAR":"-0.00021660000000","REV_AT_EPOCH":"367","TIME_SYSTEM":"UTC","PERIAPSIS":"357.427"},{"SEMIMAJOR_AXIS":"6738.096","ELEMENT_SET_NO":"999","RA_OF_ASC_NODE":"239.8862","LAUNCH_DATE":"2021-09-14","TLE_LINE2":"2 49136  70.0001 239.8862 0003162 266.1124  83.3911 15.69628826 13894","OBJECT_TYPE":"PAYLOAD","ARG_OF_PERICENTER":"266.1124","FILE":"3236993","EPOCH":"2021-12-11T00:00:00.999648","NORAD_CAT_ID":"49136","ECCENTRICITY":"0.00031620","APOAPSIS":"362.092","RCS_SIZE":"LARGE","MEAN_MOTION_DDOT":"0.0000000000000","OBJECT_NAME":"STARLINK-3084","MEAN_MOTION":"15.69628826","EPHEMERIS_TYPE":"0","SITE":"AFWTR","CLASSIFICATION_TYPE":"U","MEAN_ELEMENT_THEORY":"SGP4","TLE_LINE1":"1 49136U 21082G   21345.00001157  .00191817  00000-0  15800-2 0  9998","MEAN_MOTION_DOT":"0.00191817","DECAY_DATE":null,"GP_ID":"191436141","INCLINATION":"70.0001","CENTER_NAME":"EARTH","OBJECT_ID":"2021-082G","COUNTRY_CODE":"US","REF_FRAME":"TEME","PERIOD":"91.741","PERIAPSIS":"357.830","MEAN_ANOMALY":"83.3911","BSTAR":"0.00158000000000","TIME_SYSTEM":"UTC","REV_AT_EPOCH":"1389"}];
